NORAD_CAT_ID,OBJECT_NAME,OBJECT_TYPE,EPOCH,MEAN_MOTION,ECCENTRICITY,INCLINATION,RA_OF_ASC_NODE,ARG_OF_PERICENTER,MEAN_ANOMALY,BSTAR,MEAN_MOTION_DOT,MEAN_MOTION_DDOT,TLE_LINE0,TLE_LINE1,TLE_LINE2,SEMIMAJOR_AXIS,PERIOD,APOGEE,PERIGEE,DECAYED
52682.0,STARLINK-4017,PAYLOAD,2023-02-04 13:26:41,15.08844847,0.0001107,53.2166,172.9783,95.7366,264.3752,0.00025616,3.792e-05,0.0,0 STARLINK-4017,1 52682U 22053AC  23035.56020278  .00003792  00000-0  25616-3 0  9992,2 52682  53.2166 172.9783 0001107  95.7366 264.3752 15.08844847 40697,6917.866,95.437,540.496,538.965,0.0
52682.0,STARLINK-4017,PAYLOAD,2023-02-04 19:48:13,15.08853423,0.0001091,53.2166,171.7894,88.5107,271.601,0.0003643,5.517e-05,0.0,0 STARLINK-4017,1 52682U 22053AC  23035.82515906  .00005517  00000-0  36430-3 0  9991,2 52682  53.2166 171.7894 0001091  88.5107 271.6010 15.08853423 40735,6917.839,95.437,540.459,538.95,0.0
52682.0,STARLINK-4017,PAYLOAD,2023-02-05 02:09:46,15.08835117,2.76e-05,53.2165,170.5996,151.5613,208.5394,2.0476e-06,-2.55e-06,0.0,0 STARLINK-4017,1 52682U 22053AC  23036.09012263 -.00000255  00000-0  20476-5 0  9999,2 52682  53.2165 170.5996 0000276 151.5613 208.5394 15.08835117 40364,6917.895,95.438,539.951,539.569,0.0
52682.0,STARLINK-4017,PAYLOAD,2023-02-05 14:52:52,15.0884116,0.0001244,53.2164,168.2209,90.5485,269.565,0.00027371,4.071e-05,0.0,0 STARLINK-4017,1 52682U 22053AC  23036.62004746  .00004071  00000-0  27371-3 0  9993,2 52682  53.2164 168.2209 0001244  90.5485 269.5650 15.08841160 40850,6917.877,95.437,540.602,538.881,0.0
52682.0,STARLINK-4017,PAYLOAD,2023-02-05 19:39:01,15.08846384,0.0001257,53.2163,167.3289,89.1456,270.968,0.00071559,0.00011121,0.0,0 STARLINK-4017,1 52682U 22053AC  23036.81876713  .00011121  00000-0  71559-3 0  9996,2 52682  53.2163 167.3289 0001257  89.1456 270.9680 15.08846384 40888,6917.861,95.437,540.595,538.856,0.0
52682.0,STARLINK-4017,PAYLOAD,2023-02-06 09:57:29,15.08851926,0.0001331,53.2166,164.653,84.3748,275.7396,0.00095683,0.00014978,0.0,0 STARLINK-4017,1 52682U 22053AC  23037.41492915  .00014978  00000-0  95683-3 0  9998,2 52682  53.2166 164.6530 0001331  84.3748 275.7396 15.08851926 40564,6917.844,95.437,540.63,538.788,0.0
52682.0,STARLINK-4017,PAYLOAD,2023-02-06 13:08:15,15.08861449,0.0001335,53.2167,164.0584,83.406,276.7084,0.0012126,0.00019074,0.0,0 STARLINK-4017,1 52682U 22053AC  23037.54740705  .00019074  00000-0  12126-2 0  9997,2 52682  53.2167 164.0584 0001335  83.4060 276.7084 15.08861449 40992,6917.815,95.436,540.603,538.756,0.0
52682.0,STARLINK-4017,PAYLOAD,2023-02-06 19:29:48,15.08876394,0.0001359,53.217,162.8695,78.4048,281.7096,0.0017205,0.00027227,0.0,0 STARLINK-4017,1 52682U 22053AC  23037.81236203  .00027227  00000-0  17205-2 0  9992,2 52682  53.2170 162.8695 0001359  78.4048 281.7096 15.08876394 41031,6917.769,95.435,540.574,538.694,0.0
52682.0,STARLINK-4017,PAYLOAD,2023-02-07 01:51:20,15.08858276,0.0001228,53.2172,161.6794,90.4253,269.688,0.00081991,0.00012791,0.0,0 STARLINK-4017,1 52682U 22053AC  23038.07732298  .00012791  00000-0  81991-3 0  9990,2 52682  53.2172 161.6794 0001228  90.4253 269.6880 15.08858276 40660,6917.825,95.436,540.539,538.84,0.0
52682.0,STARLINK-4017,PAYLOAD,2023-02-07 14:34:25,15.0886367,0.0001279,53.2174,159.3014,98.7961,261.3176,0.001534,0.00024226,0.0,0 STARLINK-4017,1 52682U 22053AC  23038.60723742  .00024226  00000-0  15340-2 0  9993,2 52682  53.2174 159.3014 0001279  98.7961 261.3176 15.08863670 41150,6917.808,95.436,540.558,538.788,0.0
52682.0,STARLINK-4017,PAYLOAD,2023-02-07 19:20:34,15.08883872,0.0001362,53.2175,158.4096,90.0024,270.1124,0.0020324,0.00032245,0.0,0 STARLINK-4017,1 52682U 22053AC  23038.80595211  .00032245  00000-0  20324-2 0  9991,2 52682  53.2175 158.4096 0001362  90.0024 270.1124 15.08883872 41189,6917.746,95.435,540.553,538.669,0.0
52682.0,STARLINK-4017,PAYLOAD,2023-02-08 03:17:30,15.08834369,0.0001245,53.2176,156.9214,118.133,241.9788,0.00015809,2.229e-05,0.0,0 STARLINK-4017,1 52682U 22053AC  23039.13716009  .00002229  00000-0  15809-3 0  9990,2 52682  53.2176 156.9214 0001245 118.1330 241.9788 15.08834369 40826,6917.898,95.438,540.624,538.901,0.0
52682.0,STARLINK-4017,PAYLOAD,2023-02-08 12:49:49,15.0885032,9.44e-05,53.2174,155.1378,102.0305,258.0793,0.0022072,0.00035024,0.0,0 STARLINK-4017,1 52682U 22053AC  23039.53460062  .00035024  00000-0  22072-2 0  9997,2 52682  53.2174 155.1378 0000944 102.0305 258.0793 15.08850320 41297,6917.849,95.437,540.367,539.061,0.0
52682.0,STARLINK-4017,PAYLOAD,2023-02-08 19:11:21,15.0887222,8.73e-05,53.2175,153.9486,96.4452,263.6639,0.0032186,0.00051355,0.0,0 STARLINK-4017,1 52682U 22053AC  23039.79955918  .00051355  00000-0  32186-2 0  9996,2 52682  53.2175 153.9486 0000873  96.4452 263.6639 15.08872220 40927,6917.782,95.436,540.251,539.043,0.0
52682.0,STARLINK-4017,PAYLOAD,2023-02-08 20:46:45,15.08823757,0.0001344,53.2175,153.6513,59.4015,300.7109,0.00065541,0.00010154,0.0,0 STARLINK-4017,1 52682U 22053AC  23039.86580747  .00010154  00000-0  65541-3 0  9992,2 52682  53.2175 153.6513 0001344  59.4015 300.7109 15.08823757 41346,6917.93,95.439,540.725,538.865,0.0
52682.0,STARLINK-4017,PAYLOAD,2023-02-08 23:57:32,15.08829116,0.0001676,53.2176,153.0568,46.1672,313.9459,0.0008753,0.00013666,0.0,0 STARLINK-4017,1 52682U 22053AC  23039.99828927  .00013666  00000-0  87530-3 0  9994,2 52682  53.2176 153.0568 0001676  46.1672 313.9459 15.08829116 40956,6917.914,95.438,540.938,538.619,0.0
52682.0,STARLINK-4017,PAYLOAD,2023-02-09 11:05:13,15.08856646,9.31e-05,53.2174,150.975,114.324,245.785,0.0021293,0.00033778,0.0,0 STARLINK-4017,1 52682U 22053AC  23040.46196555  .00033778  00000-0  21293-2 0  9992,2 52682  53.2174 150.9750 0000931 114.3240 245.7850 15.08856646 41434,6917.83,95.437,540.339,539.05,0.0
52682.0,STARLINK-4017,PAYLOAD,2023-02-09 15:51:23,15.08872651,9.28e-05,53.2174,150.0831,115.6035,244.5053,0.0029815,0.00047525,0.0,0 STARLINK-4017,1 52682U 22053AC  23040.66068352  .00047525  00000-0  29815-2 0  9990,2 52682  53.2174 150.0831 0000928 115.6035 244.5053 15.08872651 41051,6917.781,95.435,540.288,539.004,0.0
52682.0,STARLINK-4017,PAYLOAD,2023-02-09 23:48:18,15.08861711,0.0001076,53.2176,148.596,79.2934,280.8179,0.0017802,0.00028174,0.0,0 STARLINK-4017,1 52682U 22053AC  23040.99188547  .00028174  00000-0  17802-2 0  9997,2 52682  53.2176 148.5960 0001076  79.2934 280.8179 15.08861711 41109,6917.814,95.436,540.423,538.935,0.0
52682.0,STARLINK-4017,PAYLOAD,2023-02-10 14:06:47,15.08858426,7.84e-05,53.2168,145.9206,80.6819,279.4262,0.0035951,0.00057423,0.0,0 STARLINK-4017,1 52682U 22053AC  23041.58804889  .00057423  00000-0  35951-2 0  9991,2 52682  53.2168 145.9206 0000784  80.6819 279.4262 15.08858426 41192,6917.824,95.436,540.231,539.147,0.0
52682.0,STARLINK-4017,PAYLOAD,2023-02-10 18:52:56,15.08882422,7.86e-05,53.2167,145.0285,73.9364,286.1715,0.0035582,0.00056864,0.0,0 STARLINK-4017,1 52682U 22053AC  23041.78676505  .00056864  00000-0  35582-2 0  9993,2 52682  53.2167 145.0285 0000786  73.9364 286.1715 15.08882422 41631,6917.751,95.435,540.159,539.072,0.0
52682.0,STARLINK-4017,PAYLOAD,2023-02-10 23:39:06,15.08809677,0.0001006,53.2166,144.136,94.8988,265.2119,0.0014402,0.00022688,0.0,0 STARLINK-4017,1 52682U 22053AC  23041.98549396  .00022688  00000-0  14402-2 0  9997,2 52682  53.2166 144.1360 0001006  94.8988 265.2119 15.08809677 41259,6917.973,95.439,540.534,539.142,0.0
52682.0,STARLINK-4017,PAYLOAD,2023-02-11 09:11:26,15.08833367,0.0001115,53.2163,142.3529,89.4896,270.6224,0.0037729,0.0006026,0.0,0 STARLINK-4017,1 52682U 22053AC  23042.38294038  .00060260  00000-0  37729-2 0  9997,2 52682  53.2163 142.3529 0001115  89.4896 270.6224 15.08833367 41319,6917.901,95.438,540.537,538.994,0.0
52682.0,STARLINK-4017,PAYLOAD,2023-02-11 15:32:58,15.08862919,0.0001233,53.2165,141.1635,93.9535,266.1598,0.0034885,0.00055705,0.0,0 STARLINK-4017,1 52682U 22053AC  23042.64789871  .00055705  00000-0  34885-2 0  9998,2 52682  53.2165 141.1635 0001233  93.9535 266.1598 15.08862919 41765,6917.81,95.436,540.528,538.822,0.0
52682.0,STARLINK-4017,PAYLOAD,2023-02-12 18:34:31,15.08892592,0.0001211,53.2156,136.1072,123.1053,237.0056,0.0027038,0.00043068,0.0,0 STARLINK-4017,1 52682U 22053AC  23043.77397047  .00043068  00000-0  27038-2 0  9994,2 52682  53.2156 136.1072 0001211 123.1053 237.0056 15.08892592 41521,6917.72,95.434,540.422,538.747,0.0
52682.0,STARLINK-4017,PAYLOAD,2023-02-12 23:20:41,15.08824719,0.0001132,53.2158,135.2159,94.787,265.3251,0.0015914,0.00025119,0.0,0 STARLINK-4017,1 52682U 22053AC  23043.97269782  .00025119  00000-0  15914-2 0  9997,2 52682  53.2158 135.2159 0001132  94.7870 265.3251 15.08824719 41551,6917.927,95.439,540.575,539.009,0.0
52682.0,STARLINK-4017,PAYLOAD,2023-02-13 12:03:46,15.08865271,0.0001231,53.2163,132.8373,85.3303,274.7829,0.0023891,0.00037966,0.0,0 STARLINK-4017,1 52682U 22053AC  23044.50261737  .00037966  00000-0  23891-2 0  9995,2 52682  53.2163 132.8373 0001231  85.3303 274.7829 15.08865271 42043,6917.803,95.436,540.52,538.817,0.0
52682.0,STARLINK-4017,PAYLOAD,2023-02-13 23:11:27,15.08865432,7.35e-05,53.2157,130.7574,74.708,285.3994,0.0019776,0.00031348,0.0,0 STARLINK-4017,1 52682U 22053AC  23044.96629494  .00031348  00000-0  19776-2 0  9998,2 52682  53.2157 130.7574 0000735  74.7080 285.3994 15.08865432 41700,6917.803,95.436,540.176,539.159,0.0
52682.0,STARLINK-4017,PAYLOAD,2023-02-14 11:54:32,15.08861551,0.0001875,53.2164,128.3753,100.5736,259.5467,0.0011311,0.0001777,0.0,0 STARLINK-4017,1 52682U 22053AC  23045.49621457  .00017770  00000-0  11311-2 0  9998,2 52682  53.2164 128.3753 0001875 100.5736 259.5467 15.08861551 41786,6917.815,95.436,540.977,538.382,0.0
52682.0,STARLINK-4017,PAYLOAD,2023-02-14 16:40:42,15.0886281,0.0001723,53.2157,127.4832,98.1525,261.9662,0.00088629,0.00013854,0.0,0 STARLINK-4017,1 52682U 22053AC  23045.69493183  .00013854  00000-0  88629-3 0  9999,2 52682  53.2157 127.4832 0001723  98.1525 261.9662 15.08862810 42229,6917.811,95.436,540.868,538.484,0.0
